[{"OBJECT_NAME":"EDISON-1","OBJECT_ID":"2025-009B","EPOCH":"2026-03-09T19:16:13.822464","MEAN_MOTION":15.29042904,"ECCENTRICITY":0.00043285,"INCLINATION":97.4042,"RA_OF_ASC_NODE":151.6286,"ARG_OF_PERICENTER":306.4185,"MEAN_ANOMALY":53.6655,"EPHEMERIS_TYPE":0,"CLASSIFICATION_TYPE":"U","NORAD_CAT_ID":62610,"ELEMENT_SET_NO":999,"REV_AT_EPOCH":6375,"BSTAR":0.00052814963,"MEAN_MOTION_DOT":0.00014835,"MEAN_MOTION_DDOT":0},{"OBJECT_NAME":"STARLINK-36062","OBJECT_ID":"2025-278D","EPOCH":"2026-03-09T03:31:10.346592","MEAN_MOTION":15.27594512,"ECCENTRICITY":0.00010859,"INCLINATION":42.9972,"RA_OF_ASC_NODE":117.6427,"ARG_OF_PERICENTER":283.1516,"MEAN_ANOMALY":76.9215,"EPHEMERIS_TYPE":0,"CLASSIFICATION_TYPE":"U","NORAD_CAT_ID":66794,"ELEMENT_SET_NO":999,"REV_AT_EPOCH":1512,"BSTAR":0.0010821006,"MEAN_MOTION_DOT":0.00029648,"MEAN_MOTION_DDOT":0}]
